{"type":"FeatureCollection","features":[{"type":"Feature","properties":{"shapeName":"Yunnan Province","shapeISO":"CHN","shapeID":"43563684B84540832148656","shapeGroup":"CHN","shapeType":"ADM1"},"geometry":{"type":"Polygon","coordinates":[[[104.581047571000056,24.817365169000027],[104.582753801000081,24.859171968000055],[104.587803548000068,24.918721735000076],[104.628201512000032,24.998839485000076],[104.708290475000069,25.057498339000063],[104.742224764000071,25.159923803000027],[104.750304357000061,25.209642324000072],[104.759999869000069,25.330928674000063],[104.742224764000071,25.380577208000034],[104.719601904000058,25.412691861000042],[104.651733326000056,25.478354285000023],[104.567705561000082,25.49148247100004],[104.496605145000046,25.519192820000058],[104.415809216000071,25.688232880000044],[104.35602022900008,25.798853447000056],[104.420656973000064,25.871573904000059],[104.457823098000063,25.971854656000062],[104.564473723000049,26.148953457000061],[104.577401073000033,26.205510468000057],[104.567705561000082,26.282325964000051],[104.587096582000072,26.372121090000064],[104.658499985000049,26.443219748000047],[104.691323330000046,26.490684886000054],[104.708997440000076,26.535871569000051],[104.655975112000078,26.617162757000074],[104.587803548000068,26.716440202000058],[104.491858383000078,26.802110210000023],[104.380763982000076,26.761537732000079],[104.330266529000085,26.761537732000079],[104.206547765000039,26.768300819000046],[104.178774163000071,26.738991202000079],[104.133326454000041,26.682605326000044],[104.06263001700006,26.63747653300004],[103.976784344000066,26.635219626000037],[103.85054070700005,26.669068563000053],[103.835391471000037,26.734481360000075],[103.842966089000072,26.813377769000056],[103.806607920000033,26.870509575000028],[103.796912411000051,26.905099041000028],[103.795296491000045,26.952642258000026],[103.801760166000065,26.995845963000079],[103.824383025000088,27.024639219000051],[103.837310373000037,27.054864197000029],[103.806607920000033,27.10809791500003],[103.722580157000039,27.146928173000049],[103.695109541000079,27.17280751900006],[103.691877705000081,27.198680866000075],[103.738739342000088,27.256155694000029],[103.813071596000043,27.316472313000077],[103.901947115000041,27.442743642000039],[103.994054473000062,27.487191231000054],[104.108784691000039,27.47572260000004],[104.236442256000032,27.398278141000048],[104.259065116000045,27.418361552000079],[104.276840221000043,27.459951287000024],[104.35602022900008,27.510124906000044],[104.451359423000042,27.511558102000038],[104.549930456000084,27.45278176100004],[104.916743969000038,27.425533315000052],[105.054097046000038,27.482890634000057],[105.091263172000083,27.491491659000076],[105.17205910000007,27.490058201000068],[105.217304819000049,27.501525337000032],[105.248007272000052,27.535919578000062],[105.328803200000038,27.747779261000062],[105.374048919000074,27.849268785000049],[105.369458761000033,27.865629813000055],[105.334534660000088,27.992964870000037],[105.342424888000039,28.076537770000073],[105.302973752000071,28.114820309000038],[105.208291023000072,28.194821456000057],[105.129388750000032,28.208728595000025],[105.054431591000082,28.170479610000029],[105.026815795000061,28.052169047000064],[104.821669885000063,27.975545684000053],[104.584963066000057,27.989481258000069],[104.506060793000074,28.031277174000024],[104.458719428000052,28.114820309000038],[104.486335225000062,28.187867207000068],[104.490280338000048,28.316447485000026],[104.427158519000045,28.354644129000064],[104.356146473000081,28.420587786000056],[104.344311133000076,28.500359393000053],[104.407432951000033,28.59739131200007],[104.399542724000071,28.704715101000033],[104.300914882000086,28.749689138000065],[104.19045169900005,28.718555327000047],[104.060262949000048,28.704715101000033],[103.977415561000043,28.711635443000034],[103.918238857000063,28.701254759000051],[103.866952379000054,28.638949034000063],[103.874842608000051,28.555817152000031],[103.937964425000075,28.465683483000078],[103.910348631000033,28.378943931000038],[103.760434312000086,28.347700305000046],[103.669696698000052,28.330338762000054],[103.618410220000044,28.32339335100005],[103.555288400000052,28.236537438000028],[103.555288400000052,28.142653575000054],[103.582904197000062,28.09742084800007],[103.571068855000078,28.00689819400003],[103.572804706000056,27.907653710000034],[103.413737723000054,27.784866085000033],[103.27991946800006,27.65746699400006],[103.199123541000063,27.565737121000041],[103.138526595000087,27.536636010000052],[103.093078884000079,27.534397143000035],[103.052680922000036,27.520962988000065],[103.022382449000077,27.489610241000037],[103.014807829000063,27.42911902000003],[102.992083975000071,27.357382781000069],[102.976934738000068,27.274379792000047],[102.961785503000044,27.175592786000038],[102.954210885000066,27.099197417000028],[102.950171087000058,26.982886593000046],[102.995416808000073,26.938237338000079],[103.018039668000085,26.887805631000049],[103.069749061000039,26.831583776000059],[103.071364980000055,26.769563216000051],[103.061669468000048,26.664194934000079],[103.060255540000071,26.517799029000059],[103.024907320000068,26.483905351000033],[102.92391241100006,26.411565450000069],[102.840591612000082,26.373116412000059],[102.772420048000072,26.332391717000064],[102.719397719000085,26.332391717000064],[102.671425137000085,26.382164397000054],[102.63607692000005,26.431915639000067],[102.605778446000045,26.445480437000072],[102.557805864000045,26.445480437000072],[102.512358154000083,26.427393686000073],[102.466910445000053,26.402519769000037],[102.423987609000051,26.384426282000049],[102.325517572000081,26.316550462000066],[102.264920626000048,26.264485382000032],[102.146251606000078,26.194273760000044],[102.055356189000065,26.171615810000048],[101.961935897000046,26.17614775100003],[101.863465859000087,26.201070285000071],[101.840742006000085,26.221457480000026],[101.792769424000085,26.278069831000039],[101.714498368000079,26.314287250000064],[101.681675022000036,26.323339837000049],[101.651376549000076,26.393473381000035],[101.651376549000076,26.531353700000068],[101.522608039000033,26.63747653300004],[101.515033421000055,26.669068563000053],[101.525132912000061,26.723205972000073],[101.530182659000047,26.797602874000063],[101.492309568000053,26.849426429000061],[101.419088257000055,26.93724693300004],[101.272645638000085,27.049737317000051],[101.243451798000081,27.308037135000063],[101.156659297000033,27.406146074000048],[101.050141228000086,27.455167921000054],[101.010690092000061,27.521662724000066],[100.994909637000035,27.591613839000047],[100.979129182000065,27.672002477000035],[100.896281797000086,27.738365909000038],[100.75820281700004,27.874458955000023],[100.631959180000081,27.975545684000053],[100.509660656000051,27.961608308000052],[100.181900614000085,28.086005269000054],[100.176850870000067,28.143905901000039],[100.154127015000086,28.206225443000051],[100.12382854100008,28.317419934000043],[100.12382854100008,28.386302203000071],[100.174325997000039,28.470677516000023],[100.204624470000056,28.557203221000066],[100.141502650000064,28.617064016000029],[100.070806215000061,28.654736654000033],[100.002634651000051,28.652520990000028],[99.936987958000032,28.637010039000074],[99.896589995000056,28.599331039000049],[99.81579406700007,28.539460148000046],[99.659251957000038,28.375195183000073],[99.505234720000033,28.359643400000039],[99.485035738000079,28.321865299000024],[99.391615447000049,28.246268822000047],[99.315869263000081,28.352977653000039],[99.26789668300006,28.412954305000028],[99.214874355000063,28.535023912000042],[99.209824610000055,28.749965842000051],[99.164073916000063,28.932474145000072],[99.162457997000047,29.054027065000071],[99.121454064000034,29.277676768000049],[99.121454064000034,29.340099191000036],[99.047727780000059,29.338971656000069],[98.981475118000048,29.317839646000039],[98.931381644000055,29.272743395000077],[98.936229399000069,29.131689405000031],[98.829578775000073,29.015880494000044],[98.674450593000074,28.970651495000027],[98.697073452000041,28.854661968000073],[98.667986920000033,28.741376626000033],[98.655059570000049,28.637896440000077],[98.674450593000074,28.383725478000031],[98.50639506300007,28.306928135000078],[98.36904198600007,28.37661694600007],[98.264007280000044,28.287008650000075],[98.154365706000078,28.213301262000073],[98.175757038000086,28.19082400700006],[98.175757038000086,27.961372657000027],[98.435810917000083,27.539444197000023],[98.560420066000063,27.673871377000069],[98.760878265000088,27.568263902000069],[98.755460477000042,27.323055776000047],[98.777131632000078,27.173741962000065],[98.825891735000084,26.961469432000058],[98.781533585000034,26.269434296000043],[98.612227676000032,26.064296087000059],[98.756137700000068,25.91972372500004],[98.654554153000049,25.790219023000077],[98.569901198000082,25.805462229000057],[98.400595287000044,25.584244253000065],[98.214358785000059,25.576608725000028],[98.147801245000039,25.366006737000077],[97.891214752000053,25.300193881000041],[97.759454120000044,25.002023333000068],[97.818399667000051,24.873114743000031],[97.631160873000056,24.822772410000027],[97.582617482000046,24.662169773000073],[97.599954407000041,24.542370452000057],[97.645030413000086,24.425613736000059],[97.717845500000067,24.340344606000031],[97.773323661000063,24.239210525000033],[97.655432568000037,24.011365125000054],[97.645030413000086,23.884609447000059],[97.766388890000087,23.884609447000059],[98.043779693000033,24.11267983700003],[98.33157265300008,24.185450310000078],[98.560420066000063,24.131667434000065],[98.862082565000037,24.150652211000079],[98.747658860000058,23.935326662000023],[98.841278255000077,23.687892686000055],[98.882886877000033,23.614841550000051],[98.952234578000059,23.233046572000035],[99.139473370000076,23.102348216000053],[99.503548800000033,23.121482770000057],[99.541690036000034,22.965137568000046],[99.402994633000048,22.783038954000062],[99.420331560000079,22.555874113000073],[99.283716589000051,22.409266009000078],[99.219361921000086,22.152586602000042],[99.993837047000056,22.037441846000036],[99.991617920000067,21.763598057000024],[100.146956770000088,21.641950535000035],[100.240160080000067,21.39628209600005],[100.395498931000077,21.491295592000029],[100.628507207000041,21.435534302000065],[100.83266683800008,21.604817292000064],[101.103400263000083,21.710003344000029],[101.302944111000045,21.20822159100004],[101.662265063000063,21.213517699000022],[101.781565301000057,21.171143518000065],[101.812827245000051,21.530651237000029],[101.795490318000077,21.862489549000031],[101.594381986000087,22.193558515000063],[101.601316757000063,22.260962760000041],[101.712273078000067,22.45657176800006],[102.206306100000063,22.427728711000043],[102.448190881000073,22.616317457000036],[102.494792536000034,22.733031028000028],[102.614625363000073,22.769867287000068],[103.029602006000061,22.462596005000023],[103.404634373000079,22.792373443000031],[103.582164488000046,22.579439926000077],[103.675367798000082,22.78828168900003],[103.994922005000035,22.509755441000038],[104.108097453000084,22.745310885000038],[104.25012154500007,22.849645071000054],[104.369954371000063,22.72893749800005],[104.904763842000079,22.894627294000031],[104.922516854000037,23.033568898000055],[104.909202095000069,23.111150450000025],[105.301987472000064,23.341588309000031],[105.36190388700004,23.361961855000061],[105.537065878000078,23.282529773000078],[105.576038738000079,23.322662196000067],[105.664009343000032,23.393335500000035],[105.683658914000034,23.415164805000074],[105.745710186000053,23.458812610000052],[105.786043513000038,23.497703930000057],[105.831547780000051,23.564077221000048],[105.876017859000058,23.588721625000062],[106.085957997000037,23.583982675000073],[106.139735767000047,23.601042091000068],[106.154214397000032,23.637996544000032],[106.167658839000069,23.754476835000048],[106.19868447500005,23.916239762000032],[106.203855415000078,23.971060829000066],[106.179034906000084,24.027747748000024],[106.12112038500004,24.107067435000033],[106.075616119000074,24.147652566000033],[106.033214416000078,24.171242650000067],[105.985641774000044,24.164637866000078],[105.940137508000078,24.130665008000051],[105.857814536000035,24.11239570500004],[105.771968864000087,24.165389766000033],[105.660874462000038,24.211453692000077],[105.620476498000073,24.220664480000039],[105.600277516000062,24.218361845000061],[105.519481589000065,24.158478744000035],[105.463934388000041,24.15387118700005],[105.34526537000005,24.195333211000047],[105.24679533300008,24.22757213400007],[105.231646096000077,24.262104781000062],[105.231646096000077,24.342644470000039],[105.211447115000055,24.436925851000069],[105.186198387000047,24.47140145000003],[105.123076569000034,24.524245699000062],[105.072579114000064,24.558697367000036],[105.047330387000045,24.533433736000063],[104.961484713000061,24.515056990000062],[104.91098725900008,24.544917836000025],[104.774644131000059,24.549511181000071],[104.734246167000038,24.52883980200005],[104.724146676000032,24.475997484000061],[104.696373076000043,24.462208879000059],[104.648400494000043,24.508165018000057],[104.582753801000081,24.590843721000056],[104.554980201000035,24.655111662000024],[104.542355839000038,24.710172148000026],[104.544880710000086,24.742279527000051],[104.580228930000033,24.797301461000075],[104.581047571000056,24.817365169000027]]]}}]}
